NORAD_CAT_ID,OBJECT_NAME,OBJECT_TYPE,EPOCH,MEAN_MOTION,ECCENTRICITY,INCLINATION,RA_OF_ASC_NODE,ARG_OF_PERICENTER,MEAN_ANOMALY,BSTAR,MEAN_MOTION_DOT,MEAN_MOTION_DDOT,TLE_LINE0,TLE_LINE1,TLE_LINE2,SEMIMAJOR_AXIS,PERIOD,APOGEE,PERIGEE,DECAYED
50823.0,STARLINK-3334,PAYLOAD,2022-11-23 14:02:46,15.0883723,0.0001911,53.217,165.5914,53.0306,307.086,-1.2753e-06,-3.08e-06,0.0,0 STARLINK-3334,1 50823U 22001W   22327.58526209 -.00000308  00000-0 -12753-5 0  9992,2 50823  53.2170 165.5914 0001911  53.0306 307.0860 15.08837230 48933,6917.889,95.438,541.076,538.432,0.0
50823.0,STARLINK-3334,PAYLOAD,2022-11-23 20:24:19,15.08837891,0.0002026,53.2167,164.4019,53.7757,306.3422,7.072e-06,-1.76e-06,0.0,0 STARLINK-3334,1 50823U 22001W   22327.85022146 -.00000176  00000-0  70720-5 0  9993,2 50823  53.2167 164.4019 0002026  53.7757 306.3422 15.08837891 50255,6917.887,95.438,541.153,538.35,0.0
50823.0,STARLINK-3334,PAYLOAD,2022-11-24 05:56:37,15.08840021,0.0002006,53.2169,162.6177,54.3878,305.7301,2.9409000000000013e-05,1.8e-06,0.0,0 STARLINK-3334,1 50823U 22001W   22328.24766045  .00000180  00000-0  29409-4 0  9991,2 50823  53.2169 162.6177 0002006  54.3878 305.7301 15.08840021 49033,6917.88,95.438,541.133,538.3580000000002,0.0
50823.0,STARLINK-3334,PAYLOAD,2022-11-24 17:04:19,15.08836838,0.0001974,53.217,160.5362,54.7869,305.3308,0.00010743,1.422e-05,0.0,0 STARLINK-3334,1 50823U 22001W   22328.71134181  .00001422  00000-0  10743-3 0  9993,2 50823  53.2170 160.5362 0001974  54.7869 305.3308 15.08836838 49107,6917.89,95.438,541.121,538.389,0.0
50823.0,STARLINK-3334,PAYLOAD,2022-11-24 21:50:29,15.08837799,0.0001989,53.217,159.6442,55.2498,304.8681,0.00010901,1.447e-05,0.0,0 STARLINK-3334,1 50823U 22001W   22328.91006136  .00001447  00000-0  10901-3 0  9996,2 50823  53.2170 159.6442 0001989  55.2498 304.8681 15.08837799 50416,6917.887,95.438,541.128,538.376,0.0
50823.0,STARLINK-3334,PAYLOAD,2022-11-25 12:08:57,15.08841905,0.0002022,53.2169,156.9678,55.6791,304.4393,0.00012115,1.641e-05,0.0,0 STARLINK-3334,1 50823U 22001W   22329.50621982  .00001641  00000-0  12115-3 0  9999,2 50823  53.2169 156.9678 0002022  55.6791 304.4393 15.08841905 49221,6917.875,95.437,541.138,538.341,0.0
50823.0,STARLINK-3334,PAYLOAD,2022-11-25 20:05:52,15.08846123,0.0002028,53.217,155.4811,56.5024,303.6161,0.00012924,1.77e-05,0.0,0 STARLINK-3334,1 50823U 22001W   22329.83741691  .00001770  00000-0  12924-3 0  9996,2 50823  53.2170 155.4811 0002028  56.5024 303.6161 15.08846123 49277,6917.861999999999,95.437,541.13,538.3240000000002,0.0
50823.0,STARLINK-3334,PAYLOAD,2022-11-26 05:38:11,15.08849347,0.0002056,53.2169,153.6969,56.7152,303.4037,0.00013784,1.907e-05,0.0,0 STARLINK-3334,1 50823U 22001W   22330.23485319  .00001907  00000-0  13784-3 0  9991,2 50823  53.2169 153.6969 0002056  56.7152 303.4037 15.08849347 50615,6917.852,95.437,541.139,538.295,0.0
50823.0,STARLINK-3334,PAYLOAD,2022-11-26 13:35:07,15.0884703,0.0002093,53.2168,152.21,59.1899,300.9299,0.00010069,1.315e-05,0.0,0 STARLINK-3334,1 50823U 22001W   22330.56605446  .00001315  00000-0  10069-3 0  9998,2 50823  53.2168 152.2100 0002093  59.1899 300.9299 15.08847030 49383,6917.859,95.437,541.172,538.276,0.0
50823.0,STARLINK-3334,PAYLOAD,2022-11-26 18:21:17,15.08838476,0.0002234,53.217,151.31799999999996,64.097,296.0252,2.5711e-05,1.21e-06,0.0,0 STARLINK-3334,1 50823U 22001W   22330.76478218  .00000121  00000-0  25711-4 0  9990,2 50823  53.2170 151.3180 0002234  64.0970 296.0252 15.08838476 50690,6917.885,95.438,541.2959999999998,538.205,0.0
50823.0,STARLINK-3334,PAYLOAD,2022-11-27 11:50:31,15.0883938,0.0002045,53.2168,148.0468,58.0028,302.1163,5.0144e-06,-2.08e-06,0.0,0 STARLINK-3334,1 50823U 22001W   22331.49342103 -.00000208  00000-0  50144-5 0  9990,2 50823  53.2168 148.0468 0002045  58.0028 302.1163 15.08839380 49521,6917.882,95.438,541.1619999999998,538.3330000000002,0.0
50823.0,STARLINK-3334,PAYLOAD,2022-11-27 18:12:04,15.08841144,0.0002068,53.2173,146.858,57.8023,302.317,1.762e-05,-8e-08,0.0,0 STARLINK-3334,1 50823U 22001W   22331.75837971 -.00000008  00000-0  17620-4 0  9990,2 50823  53.2173 146.8580 0002068  57.8023 302.3170 15.08841144 49560,6917.877,95.437,541.173,538.311,0.0
50823.0,STARLINK-3334,PAYLOAD,2022-11-28 05:19:45,15.08845231,0.0002056,53.2169,144.7759,58.5675,301.5518,1.3099e-05,-8e-07,0.0,0 STARLINK-3334,1 50823U 22001W   22332.22205680 -.00000080  00000-0  13099-4 0  9995,2 50823  53.2169 144.7759 0002056  58.5675 301.5518 15.08845231 50917,6917.864000000001,95.437,541.1519999999998,538.307,0.0
50823.0,STARLINK-3334,PAYLOAD,2022-11-28 18:02:50,15.08844162,0.000205,53.2171,142.3974,56.4167,303.7021,8.5935e-05,1.0800000000000003e-05,0.0,0 STARLINK-3334,1 50823U 22001W   22332.75197465  .00001080  00000-0  85935-4 0  9992,2 50823  53.2171 142.3974 0002050  56.4167 303.7021 15.08844162 49711,6917.868,95.437,541.151,538.315,0.0
50823.0,STARLINK-3334,PAYLOAD,2022-11-29 11:32:05,15.08843241,0.0002086,53.2168,139.1261,58.7796,301.34,9.313e-05,1.194e-05,0.0,0 STARLINK-3334,1 50823U 22001W   22333.48061507  .00001194  00000-0  93130-4 0  9992,2 50823  53.2168 139.1261 0002086  58.7796 301.3400 15.08843241 49826,6917.87,95.437,541.179,538.2919999999998,0.0
50823.0,STARLINK-3334,PAYLOAD,2022-11-29 17:53:37,15.08840129,0.0002091,53.2168,137.9365,59.64,300.4799,6.2653e-05,7.09e-06,0.0,0 STARLINK-3334,1 50823U 22001W   22333.74557821  .00000709  00000-0  62653-4 0  9997,2 50823  53.2168 137.9365 0002091  59.6400 300.4799 15.08840129 51146,6917.88,95.438,541.192,538.298,0.0
50823.0,STARLINK-3334,PAYLOAD,2022-11-30 11:22:52,15.08837915,0.0002064,53.2173,134.6659,58.4446,301.6748,1.6807e-05,-2.1e-07,0.0,0 STARLINK-3334,1 50823U 22001W   22334.47422137 -.00000021  00000-0  16807-4 0  9997,2 50823  53.2173 134.6659 0002064  58.4446 301.6748 15.08837915 49973,6917.887,95.438,541.18,538.3240000000002,0.0
50823.0,STARLINK-3334,PAYLOAD,2022-11-30 17:44:25,15.08840499,0.0002075,53.2172,133.4765,58.6861,301.4334,3.479e-05,2.65e-06,0.0,0 STARLINK-3334,1 50823U 22001W   22334.73917912  .00000265  00000-0  34790-4 0  9996,2 50823  53.2172 133.4765 0002075  58.6861 301.4334 15.08840499 50019,6917.879,95.438,541.179,538.308,0.0
50823.0,STARLINK-3334,PAYLOAD,2022-12-01 03:16:43,15.08844373,0.0002089,53.2174,131.6922,58.668,301.4517,4.4589e-05,4.22e-06,0.0,0 STARLINK-3334,1 50823U 22001W   22335.13661607  .00000422  00000-0  44589-4 0  9990,2 50823  53.2174 131.6922 0002089  58.6680 301.4517 15.08844373 51356,6917.8669999999975,95.437,541.177,538.2869999999998,0.0
50823.0,STARLINK-3334,PAYLOAD,2022-12-01 09:38:16,15.08835857,0.0002091,53.2177,130.5033,60.6339,299.4862,9.7611e-05,1.265e-05,0.0,0 STARLINK-3334,1 50823U 22001W   22335.40157913  .00001265  00000-0  97611-4 0  9990,2 50823  53.2177 130.5033 0002091  60.6339 299.4862 15.08835857 50116,6917.893,95.438,541.205,538.312,0.0
50823.0,STARLINK-3334,PAYLOAD,2022-12-01 17:35:12,15.08837063,0.0002107,53.2178,129.0165,61.015,299.1053,9.8088e-05,1.273e-05,0.0,0 STARLINK-3334,1 50823U 22001W   22335.73277928  .00001273  00000-0  98088-4 0  9993,2 50823  53.2178 129.0165 0002107  61.0150 299.1053 15.08837063 51447,6917.889,95.438,541.212,538.297,0.0
50823.0,STARLINK-3334,PAYLOAD,2022-12-02 11:04:26,15.08840379,0.0002062,53.2182,125.7447,59.8571,300.2625,5.3417e-05,5.62e-06,0.0,0 STARLINK-3334,1 50823U 22001W   22336.46142239  .00000562  00000-0  53417-4 0  9997,2 50823  53.2182 125.7447 0002062  59.8571 300.2625 15.08840379 50273,6917.879,95.438,541.1709999999998,538.318,0.0
50823.0,STARLINK-3334,PAYLOAD,2022-12-03 02:58:17,15.08845355,0.0002174,53.2189,122.7712,58.5006,301.6198,5.1826e-05,5.37e-06,0.0,0 STARLINK-3334,1 50823U 22001W   22337.12381904  .00000537  00000-0  51826-4 0  9999,2 50823  53.2189 122.7712 0002174  58.5006 301.6198 15.08845355 51657,6917.864000000001,95.437,541.2330000000002,538.225,0.0
50823.0,STARLINK-3334,PAYLOAD,2022-12-03 10:55:14,15.08832782,0.000211,53.2196,121.2848,62.2176,297.903,4.305e-05,3.97e-06,0.0,0 STARLINK-3334,1 50823U 22001W   22337.45502736  .00000397  00000-0  43050-4 0  9997,2 50823  53.2196 121.2848 0002110  62.2176 297.9030 15.08832782 51707,6917.901999999999,95.438,541.227,538.308,0.0
50823.0,STARLINK-3334,PAYLOAD,2022-12-03 18:52:10,15.08832683,0.0002073,53.218,119.7972,57.2272,302.892,5.4278e-05,5.76e-06,0.0,0 STARLINK-3334,1 50823U 22001W   22337.78622797  .00000576  00000-0  54278-4 0  9996,2 50823  53.2180 119.7972 0002073  57.2272 302.8920 15.08832683 50476,6917.903,95.438,541.202,538.3340000000002,0.0
50823.0,STARLINK-3334,PAYLOAD,2022-12-04 09:10:37,15.08832049,0.0002018,53.2182,117.1212,59.0416,301.0774,0.0002111,3.072e-05,0.0,0 STARLINK-3334,1 50823U 22001W   22338.38238415  .00003072  00000-0  21110-3 0  9995,2 50823  53.2182 117.1212 0002018  59.0416 301.0774 15.08832049 50560,6917.905,95.438,541.1659999999998,538.374,0.0
50823.0,STARLINK-3334,PAYLOAD,2022-12-04 15:32:10,15.08833344,0.0001972,53.2182,115.9317,58.2509,301.8675,0.00020606,2.992e-05,0.0,0 STARLINK-3334,1 50823U 22001W   22338.64734419  .00002992  00000-0  20606-3 0  9998,2 50823  53.2182 115.9317 0001972  58.2509 301.8675 15.08833344 51887,6917.901,95.438,541.13,538.4019999999998,0.0
50823.0,STARLINK-3334,PAYLOAD,2022-12-05 09:01:24,15.08836347,0.0001931,53.2179,112.6614,55.4324,304.685,8.385700000000001e-05,1.047e-05,0.0,0 STARLINK-3334,1 50823U 22001W   22339.37598300  .00001047  00000-0  83857-4 0  9994,2 50823  53.2179 112.6614 0001931  55.4324 304.6850 15.08836347 50719,6917.892,95.438,541.092,538.4209999999998,0.0
50823.0,STARLINK-3334,PAYLOAD,2022-12-05 15:22:56,15.08843995,0.0001862,53.2175,111.4721,55.0156,305.1011,0.0001441999999999,2.008e-05,0.0,0 STARLINK-3334,1 50823U 22001W   22339.64093617  .00002008  00000-0  14420-3 0  9992,2 50823  53.2175 111.4721 0001862  55.0156 305.1011 15.08843995 52032,6917.868,95.437,541.021,538.445,0.0
